{"type": "FeatureCollection", "features": [{"type": "Feature", "properties": {"norad_id": 32275, "name": "COSMOS 2433 (720)", "group": "glo-ops", "lat": -15.86285933577606, "lon": 149.84136428793389, "alt_km": 19124.233428888692, "timestamp": "2025-12-04T21:36:16.134065+00:00", "meta": {"OBJECT_NAME": "COSMOS 2433 (720)", "OBJECT_ID": "2007-052A", "EPOCH": "2025-12-03T16:54:04.921632", "MEAN_MOTION": 2.13103907, "ECCENTRICITY": 0.00055343, "INCLINATION": 65.6881, "RA_OF_ASC_NODE": 322.5094, "ARG_OF_PERICENTER": 252.6226, "MEAN_ANOMALY": 107.3209, "EPHEMERIS_TYPE": 0, "CLASSIFICATION_TYPE": "U", "NORAD_CAT_ID": 32275, "ELEMENT_SET_NO": 999, "REV_AT_EPOCH": 14089, "BSTAR": 0, "MEAN_MOTION_DOT": -4.1e-07, "MEAN_MOTION_DDOT": 0}, "tle": {"line1": "1 32275U 07052A   25337.70422363 -.00000041  00000+0  00000+0 0  9994", "line2": "2 32275  65.6881 322.5094 0005534 252.6226 107.3209  2.13103907140892"}}, "geometry": {"type": "Point", "coordinates": [149.84136428793389, -15.86285933577606]}}, {"type": "Feature", "properties": {"norad_id": 32276, "name": "COSMOS 2432 (719)", "group": "glo-ops", "lat": 34.15592173840999, "lon": 124.73274417040088, "alt_km": 19154.172794646205, "timestamp": "2025-12-04T21:36:16.134088+00:00", "meta": {"OBJECT_NAME": "COSMOS 2432 (719)", "OBJECT_ID": "2007-052B", "EPOCH": "2025-12-04T11:32:51.192384", "MEAN_MOTION": 2.13103045, "ECCENTRICITY": 0.00112544, "INCLINATION": 65.7036, "RA_OF_ASC_NODE": 322.6073, "ARG_OF_PERICENTER": 311.6961, "MEAN_ANOMALY": 228.7695, "EPHEMERIS_TYPE": 0, "CLASSIFICATION_TYPE": "U", "NORAD_CAT_ID": 32276, "ELEMENT_SET_NO": 999, "REV_AT_EPOCH": 14093, "BSTAR": 0, "MEAN_MOTION_DOT": -4.5e-07, "MEAN_MOTION_DDOT": 0}, "tle": {"line1": "1 32276U 07052B   25338.48114806 -.00000045  00000+0  00000+0 0  9995", "line2": "2 32276  65.7036 322.6073 0011254 311.6961 228.7695  2.13103045140937"}}, "geometry": {"type": "Point", "coordinates": [124.73274417040088, 34.15592173840999]}}, {"type": "Feature", "properties": {"norad_id": 32393, "name": "COSMOS 2434 (721)", "group": "glo-ops", "lat": 64.23538236956027, "lon": -75.99906514639126, "alt_km": 19112.49693400248, "timestamp": "2025-12-04T21:36:16.134103+00:00", "meta": {"OBJECT_NAME": "COSMOS 2434 (721)", "OBJECT_ID": "2007-065A", "EPOCH": "2025-12-01T06:30:38.524608", "MEAN_MOTION": 2.13101181, "ECCENTRICITY": 0.00043375, "INCLINATION": 64.3147, "RA_OF_ASC_NODE": 198.5905, "ARG_OF_PERICENTER": 70.7489, "MEAN_ANOMALY": 113.3938, "EPHEMERIS_TYPE": 0, "CLASSIFICATION_TYPE": "U", "NORAD_CAT_ID": 32393, "ELEMENT_SET_NO": 999, "REV_AT_EPOCH": 13955, "BSTAR": 0, "MEAN_MOTION_DOT": 1.02e-06, "MEAN_MOTION_DDOT": 0}, "tle": {"line1": "1 32393U 07065A   25335.27127922  .00000102  00000+0  00000+0 0  9999", "line2": "2 32393  64.3147 198.5905 0004337  70.7489 113.3938  2.13101181139555"}}, "geometry": {"type": "Point", "coordinates": [-75.99906514639126, 64.23538236956027]}}, {"type": "Feature", "properties": {"norad_id": 32395, "name": "COSMOS 2436 (723)", "group": "glo-ops", "lat": -36.30254605255972, "lon": 39.23441788509696, "alt_km": 19172.933981295617, "timestamp": "2025-12-04T21:36:16.134117+00:00", "meta": {"OBJECT_NAME": "COSMOS 2436 (723)", "OBJECT_ID": "2007-065C", "EPOCH": "2025-12-01T01:03:25.836192", "MEAN_MOTION": 2.13099978, "ECCENTRICITY": 0.00177119, "INCLINATION": 64.3233, "RA_OF_ASC_NODE": 198.6683, "ARG_OF_PERICENTER": 8.6583, "MEAN_ANOMALY": 134.2889, "EPHEMERIS_TYPE": 0, "CLASSIFICATION_TYPE": "U", "NORAD_CAT_ID": 32395, "ELEMENT_SET_NO": 999, "REV_AT_EPOCH": 13950, "BSTAR": 0, "MEAN_MOTION_DOT": 1e-06, "MEAN_MOTION_DDOT": 0}, "tle": {"line1": "1 32395U 07065C   25335.04404903  .00000100  00000+0  00000+0 0  9991", "line2": "2 32395  64.3233 198.6683 0017711   8.6583 134.2889  2.13099978139504"}}, "geometry": {"type": "Point", "coordinates": [39.23441788509696, -36.30254605255972]}}, {"type": "Feature", "properties": {"norad_id": 36111, "name": "COSMOS 2456 (730)", "group": "glo-ops", "lat": -55.2745724193283, "lon": -59.913514348064524, "alt_km": 19131.626320315503, "timestamp": "2025-12-04T21:36:16.134129+00:00", "meta": {"OBJECT_NAME": "COSMOS 2456 (730)", "OBJECT_ID": "2009-070A", "EPOCH": "2025-12-02T04:31:21.819072", "MEAN_MOTION": 2.13103415, "ECCENTRICITY": 0.0002798, "INCLINATION": 64.8943, "RA_OF_ASC_NODE": 77.6987, "ARG_OF_PERICENTER": 298.3251, "MEAN_ANOMALY": 26.4531, "EPHEMERIS_TYPE": 0, "CLASSIFICATION_TYPE": "U", "NORAD_CAT_ID": 36111, "ELEMENT_SET_NO": 999, "REV_AT_EPOCH": 12422, "BSTAR": 0, "MEAN_MOTION_DOT": -2.2e-07, "MEAN_MOTION_DDOT": 0}, "tle": {"line1": "1 36111U 09070A   25336.18844698 -.00000022  00000+0  00000+0 0  9998", "line2": "2 36111  64.8943  77.6987 0002798 298.3251  26.4531  2.13103415124220"}}, "geometry": {"type": "Point", "coordinates": [-59.913514348064524, -55.2745724193283]}}, {"type": "Feature", "properties": {"norad_id": 36112, "name": "COSMOS 2457 (733)", "group": "glo-ops", "lat": 12.945161443615497, "lon": 83.63738169506144, "alt_km": 19138.687971363626, "timestamp": "2025-12-04T21:36:16.134141+00:00", "meta": {"OBJECT_NAME": "COSMOS 2457 (733)", "OBJECT_ID": "2009-070B", "EPOCH": "2025-12-03T00:06:14.592384", "MEAN_MOTION": 2.13100787, "ECCENTRICITY": 0.00049101, "INCLINATION": 64.8799, "RA_OF_ASC_NODE": 77.5186, "ARG_OF_PERICENTER": 156.2376, "MEAN_ANOMALY": 203.7006, "EPHEMERIS_TYPE": 0, "CLASSIFICATION_TYPE": "U", "NORAD_CAT_ID": 36112, "ELEMENT_SET_NO": 999, "REV_AT_EPOCH": 12424, "BSTAR": 0, "MEAN_MOTION_DOT": -2.5e-07, "MEAN_MOTION_DDOT": 0}, "tle": {"line1": "1 36112U 09070B   25337.00433556 -.00000025  00000+0  00000+0 0  9991", "line2": "2 36112  64.8799  77.5186 0004910 156.2376 203.7006  2.13100787124246"}}, "geometry": {"type": "Point", "coordinates": [83.63738169506144, 12.945161443615497]}}, {"type": "Feature", "properties": {"norad_id": 36402, "name": "COSMOS 2460 (732)", "group": "glo-ops", "lat": 12.493922658793187, "lon": -33.180832694816644, "alt_km": 19130.18065140235, "timestamp": "2025-12-04T21:36:16.134153+00:00", "meta": {"OBJECT_NAME": "COSMOS 2460 (732)", "OBJECT_ID": "2010-007C", "EPOCH": "2025-12-01T05:49:09.827040", "MEAN_MOTION": 2.13106053, "ECCENTRICITY": 0.00028009, "INCLINATION": 65.536, "RA_OF_ASC_NODE": 321.162, "ARG_OF_PERICENTER": 269.9918, "MEAN_ANOMALY": 177.6167, "EPHEMERIS_TYPE": 0, "CLASSIFICATION_TYPE": "U", "NORAD_CAT_ID": 36402, "ELEMENT_SET_NO": 999, "REV_AT_EPOCH": 12251, "BSTAR": 0, "MEAN_MOTION_DOT": -2.6e-07, "MEAN_MOTION_DDOT": 0}, "tle": {"line1": "1 36402U 10007C   25335.24247485 -.00000026  00000+0  00000+0 0  9994", "line2": "2 36402  65.5360 321.1620 0002800 269.9918 177.6167  2.13106053122518"}}, "geometry": {"type": "Point", "coordinates": [-33.180832694816644, 12.493922658793187]}}, {"type": "Feature", "properties": {"norad_id": 37867, "name": "COSMOS 2476 (744)", "group": "glo-ops", "lat": 24.040202858872156, "lon": -112.4660491254785, "alt_km": 19116.65639962694, "timestamp": "2025-12-04T21:36:16.134165+00:00", "meta": {"OBJECT_NAME": "COSMOS 2476 (744)", "OBJECT_ID": "2011-064A", "EPOCH": "2025-12-02T19:57:36.313920", "MEAN_MOTION": 2.13101261, "ECCENTRICITY": 0.00239603, "INCLINATION": 65.1573, "RA_OF_ASC_NODE": 79.5068, "ARG_OF_PERICENTER": 233.4935, "MEAN_ANOMALY": 133.1658, "EPHEMERIS_TYPE": 0, "CLASSIFICATION_TYPE": "U", "NORAD_CAT_ID": 37867, "ELEMENT_SET_NO": 999, "REV_AT_EPOCH": 10958, "BSTAR": 0, "MEAN_MOTION_DOT": -2.2e-07, "MEAN_MOTION_DDOT": 0}, "tle": {"line1": "1 37867U 11064A   25336.83167030 -.00000022  00000+0  00000+0 0  9993", "line2": "2 37867  65.1573  79.5068 0023960 233.4935 133.1658  2.13101261109581"}}, "geometry": {"type": "Point", "coordinates": [-112.4660491254785, 24.040202858872156]}}, {"type": "Feature", "properties": {"norad_id": 37868, "name": "COSMOS 2477 (745)", "group": "glo-ops", "lat": -22.845349827250004, "lon": 68.28460844618772, "alt_km": 19143.25967733952, "timestamp": "2025-12-04T21:36:16.134176+00:00", "meta": {"OBJECT_NAME": "COSMOS 2477 (745)", "OBJECT_ID": "2011-064B", "EPOCH": "2025-12-01T05:34:43.743072", "MEAN_MOTION": 2.1310269, "ECCENTRICITY": 0.00209845, "INCLINATION": 65.1625, "RA_OF_ASC_NODE": 79.6383, "ARG_OF_PERICENTER": 233.8301, "MEAN_ANOMALY": 166.8442, "EPHEMERIS_TYPE": 0, "CLASSIFICATION_TYPE": "U", "NORAD_CAT_ID": 37868, "ELEMENT_SET_NO": 999, "REV_AT_EPOCH": 10954, "BSTAR": 0, "MEAN_MOTION_DOT": -1.2e-07, "MEAN_MOTION_DDOT": 0}, "tle": {"line1": "1 37868U 11064B   25335.23245073 -.00000012  00000+0  00000+0 0  9990", "line2": "2 37868  65.1625  79.6383 0020984 233.8301 166.8442  2.13102690109542"}}, "geometry": {"type": "Point", "coordinates": [68.28460844618772, -22.845349827250004]}}, {"type": "Feature", "properties": {"norad_id": 37869, "name": "COSMOS 2475 (743)", "group": "glo-ops", "lat": -58.15208556846444, "lon": 31.458219144507893, "alt_km": 19087.209347638556, "timestamp": "2025-12-04T21:36:16.134188+00:00", "meta": {"OBJECT_NAME": "COSMOS 2475 (743)", "OBJECT_ID": "2011-064C", "EPOCH": "2025-12-02T03:10:18.719904", "MEAN_MOTION": 2.13101359, "ECCENTRICITY": 0.0026048, "INCLINATION": 65.1701, "RA_OF_ASC_NODE": 79.6277, "ARG_OF_PERICENTER": 248.2415, "MEAN_ANOMALY": 78.6584, "EPHEMERIS_TYPE": 0, "CLASSIFICATION_TYPE": "U", "NORAD_CAT_ID": 37869, "ELEMENT_SET_NO": 999, "REV_AT_EPOCH": 10956, "BSTAR": 0, "MEAN_MOTION_DOT": -1.8e-07, "MEAN_MOTION_DDOT": 0}, "tle": {"line1": "1 37869U 11064C   25336.13216111 -.00000018  00000+0  00000+0 0  9998", "line2": "2 37869  65.1701  79.6277 0026048 248.2415  78.6584  2.13101359109563"}}, "geometry": {"type": "Point", "coordinates": [31.458219144507893, -58.15208556846444]}}]}